CCSDS_OMM_VERS = 2.0
CREATION_DATE  = 
ORIGINATOR     = 

OBJECT_NAME    = HTV-X1
OBJECT_ID      = 2025-241A
CENTER_NAME    = EARTH
REF_FRAME      = TEME
TIME_SYSTEM    = UTC
MEAN_ELEMENT_THEORY = SGP/SGP4

EPOCH          = 2026-03-14T08:15:41.712192
MEAN_MOTION    = 15.22910160
ECCENTRICITY   = .00057412
INCLINATION    = 51.6358
RA_OF_ASC_NODE = 50.7100
ARG_OF_PERICENTER = 187.4047
MEAN_ANOMALY   = 172.6847

EPHEMERIS_TYPE = 0
CLASSIFICATION_TYPE = U
NORAD_CAT_ID   = 66174
ELEMENT_SET_NO = 999
REV_AT_EPOCH   = 2166
BSTAR          = .57086916E-3
MEAN_MOTION_DOT = .13268E-3
MEAN_MOTION_DDOT = 0

CCSDS_OMM_VERS = 2.0
CREATION_DATE  = 
ORIGINATOR     = 

OBJECT_NAME    = SZ-21 MODULE
OBJECT_ID      = 2025-246C
CENTER_NAME    = EARTH
REF_FRAME      = TEME
TIME_SYSTEM    = UTC
MEAN_ELEMENT_THEORY = SGP/SGP4

EPOCH          = 2026-03-17T14:02:08.684736
MEAN_MOTION    = 15.69175030
ECCENTRICITY   = .00005925
INCLINATION    = 41.4741
RA_OF_ASC_NODE = 154.7368
ARG_OF_PERICENTER = 302.6268
MEAN_ANOMALY   = 57.4517

EPHEMERIS_TYPE = 0
CLASSIFICATION_TYPE = U
NORAD_CAT_ID   = 66515
ELEMENT_SET_NO = 999
REV_AT_EPOCH   = 1931
BSTAR          = .24560925E-3
MEAN_MOTION_DOT = .29162E-3
MEAN_MOTION_DDOT = 0

CCSDS_OMM_VERS = 2.0
CREATION_DATE  = 
ORIGINATOR     = 

OBJECT_NAME    = SHENZHOU-22
OBJECT_ID      = 2025-272A
CENTER_NAME    = EARTH
REF_FRAME      = TEME
TIME_SYSTEM    = UTC
MEAN_ELEMENT_THEORY = SGP/SGP4

EPOCH          = 2026-03-17T14:03:02.686464
MEAN_MOTION    = 15.61097073
ECCENTRICITY   = .0006128
INCLINATION    = 41.4671
RA_OF_ASC_NODE = 160.1042
ARG_OF_PERICENTER = 321.3981
MEAN_ANOMALY   = 38.6419

EPHEMERIS_TYPE = 0
CLASSIFICATION_TYPE = U
NORAD_CAT_ID   = 66645
ELEMENT_SET_NO = 999
REV_AT_EPOCH   = 26752
BSTAR          = .24025175E-3
MEAN_MOTION_DOT = .20571E-3
MEAN_MOTION_DDOT = 0

CCSDS_OMM_VERS = 2.0
CREATION_DATE  = 
ORIGINATOR     = 

OBJECT_NAME    = SOYUZ-MS 28
OBJECT_ID      = 2025-275A
CENTER_NAME    = EARTH
REF_FRAME      = TEME
TIME_SYSTEM    = UTC
MEAN_ELEMENT_THEORY = SGP/SGP4

EPOCH          = 2026-03-17T09:17:12.433344
MEAN_MOTION    = 15.48344038
ECCENTRICITY   = .00062325
INCLINATION    = 51.6338
RA_OF_ASC_NODE = 34.3055
ARG_OF_PERICENTER = 201.4845
MEAN_ANOMALY   = 158.5882

EPHEMERIS_TYPE = 0
CLASSIFICATION_TYPE = U
NORAD_CAT_ID   = 66664
ELEMENT_SET_NO = 999
REV_AT_EPOCH   = 55452
BSTAR          = .24295645E-3
MEAN_MOTION_DOT = .12661E-3
MEAN_MOTION_DDOT = 0

CCSDS_OMM_VERS = 2.0
CREATION_DATE  = 
ORIGINATOR     = 

OBJECT_NAME    = DUPLEX
OBJECT_ID      = 1998-067XS
CENTER_NAME    = EARTH
REF_FRAME      = TEME
TIME_SYSTEM    = UTC
MEAN_ELEMENT_THEORY = SGP/SGP4

EPOCH          = 2026-03-17T20:50:35.117664
MEAN_MOTION    = 15.56749570
ECCENTRICITY   = .0002923
INCLINATION    = 51.6300
RA_OF_ASC_NODE = 28.5236
ARG_OF_PERICENTER = 147.5599
MEAN_ANOMALY   = 212.5573

EPHEMERIS_TYPE = 0
CLASSIFICATION_TYPE = U
NORAD_CAT_ID   = 66906
ELEMENT_SET_NO = 999
REV_AT_EPOCH   = 1640
BSTAR          = .33315E-3
MEAN_MOTION_DOT = .23871E-3
MEAN_MOTION_DDOT = 0

CCSDS_OMM_VERS = 2.0
CREATION_DATE  = 
ORIGINATOR     = 

OBJECT_NAME    = ISS OBJECT XT
OBJECT_ID      = 1998-067XT
CENTER_NAME    = EARTH
REF_FRAME      = TEME
TIME_SYSTEM    = UTC
MEAN_ELEMENT_THEORY = SGP/SGP4

EPOCH          = 2026-03-17T20:29:49.345440
MEAN_MOTION    = 15.72037118
ECCENTRICITY   = .000496
INCLINATION    = 51.6254
RA_OF_ASC_NODE = 23.9047
ARG_OF_PERICENTER = 133.7464
MEAN_ANOMALY   = 226.3945

EPHEMERIS_TYPE = 0
CLASSIFICATION_TYPE = U
NORAD_CAT_ID   = 66907
ELEMENT_SET_NO = 999
REV_AT_EPOCH   = 1646
BSTAR          = .10418E-2
MEAN_MOTION_DOT = .141215E-2
MEAN_MOTION_DDOT = 0

CCSDS_OMM_VERS = 2.0
CREATION_DATE  = 
ORIGINATOR     = 

OBJECT_NAME    = ISS OBJECT XU
OBJECT_ID      = 1998-067XU
CENTER_NAME    = EARTH
REF_FRAME      = TEME
TIME_SYSTEM    = UTC
MEAN_ELEMENT_THEORY = SGP/SGP4

EPOCH          = 2026-03-17T20:26:12.776064
MEAN_MOTION    = 15.72184619
ECCENTRICITY   = .0005185
INCLINATION    = 51.6253
RA_OF_ASC_NODE = 23.8844
ARG_OF_PERICENTER = 134.5412
MEAN_ANOMALY   = 225.6010

EPHEMERIS_TYPE = 0
CLASSIFICATION_TYPE = U
NORAD_CAT_ID   = 66908
ELEMENT_SET_NO = 999
REV_AT_EPOCH   = 1646
BSTAR          = .1051E-2
MEAN_MOTION_DOT = .143415E-2
MEAN_MOTION_DDOT = 0

CCSDS_OMM_VERS = 2.0
CREATION_DATE  = 
ORIGINATOR     = 

OBJECT_NAME    = SILVERSAT
OBJECT_ID      = 1998-067XV
CENTER_NAME    = EARTH
REF_FRAME      = TEME
TIME_SYSTEM    = UTC
MEAN_ELEMENT_THEORY = SGP/SGP4

EPOCH          = 2026-03-17T20:03:35.166816
MEAN_MOTION    = 15.75860504
ECCENTRICITY   = .0005592
INCLINATION    = 51.6245
RA_OF_ASC_NODE = 23.0257
ARG_OF_PERICENTER = 135.6947
MEAN_ANOMALY   = 224.4501

EPHEMERIS_TYPE = 0
CLASSIFICATION_TYPE = U
NORAD_CAT_ID   = 66909
ELEMENT_SET_NO = 999
REV_AT_EPOCH   = 1647
BSTAR          = .12052E-2
MEAN_MOTION_DOT = .194062E-2
MEAN_MOTION_DDOT = 0

CCSDS_OMM_VERS = 2.0
CREATION_DATE  = 
ORIGINATOR     = 

OBJECT_NAME    = ISS OBJECT XW
OBJECT_ID      = 1998-067XW
CENTER_NAME    = EARTH
REF_FRAME      = TEME
TIME_SYSTEM    = UTC
MEAN_ELEMENT_THEORY = SGP/SGP4

EPOCH          = 2026-03-17T20:28:22.653408
MEAN_MOTION    = 15.71100096
ECCENTRICITY   = .0005548
INCLINATION    = 51.6246
RA_OF_ASC_NODE = 23.8907
ARG_OF_PERICENTER = 135.6820
MEAN_ANOMALY   = 224.4623

EPHEMERIS_TYPE = 0
CLASSIFICATION_TYPE = U
NORAD_CAT_ID   = 66910
ELEMENT_SET_NO = 999
REV_AT_EPOCH   = 1646
BSTAR          = .94833E-3
MEAN_MOTION_DOT = .12325E-2
MEAN_MOTION_DDOT = 0

CCSDS_OMM_VERS = 2.0
CREATION_DATE  = 
ORIGINATOR     = 

OBJECT_NAME    = ISS OBJECT XX
OBJECT_ID      = 1998-067XX
CENTER_NAME    = EARTH
REF_FRAME      = TEME
TIME_SYSTEM    = UTC
MEAN_ELEMENT_THEORY = SGP/SGP4

EPOCH          = 2026-03-17T21:03:01.984320
MEAN_MOTION    = 15.80108940
ECCENTRICITY   = .000719
INCLINATION    = 51.6216
RA_OF_ASC_NODE = 21.7750
ARG_OF_PERICENTER = 140.6515
MEAN_ANOMALY   = 219.5010

EPHEMERIS_TYPE = 0
CLASSIFICATION_TYPE = U
NORAD_CAT_ID   = 66911
ELEMENT_SET_NO = 999
REV_AT_EPOCH   = 1648
BSTAR          = .12731E-2
MEAN_MOTION_DOT = .249839E-2
MEAN_MOTION_DDOT = 0

CCSDS_OMM_VERS = 2.0
CREATION_DATE  = 
ORIGINATOR     = 

OBJECT_NAME    = ISS OBJECT XY
OBJECT_ID      = 1998-067XY
CENTER_NAME    = EARTH
REF_FRAME      = TEME
TIME_SYSTEM    = UTC
MEAN_ELEMENT_THEORY = SGP/SGP4

EPOCH          = 2026-03-17T21:14:51.311040
MEAN_MOTION    = 15.65311946
ECCENTRICITY   = .0003618
INCLINATION    = 51.6276
RA_OF_ASC_NODE = 25.6291
ARG_OF_PERICENTER = 137.8396
MEAN_ANOMALY   = 222.2878

EPHEMERIS_TYPE = 0
CLASSIFICATION_TYPE = U
NORAD_CAT_ID   = 66912
ELEMENT_SET_NO = 999
REV_AT_EPOCH   = 1643
BSTAR          = .75848E-3
MEAN_MOTION_DOT = .77134E-3
MEAN_MOTION_DDOT = 0

CCSDS_OMM_VERS = 2.0
CREATION_DATE  = 
ORIGINATOR     = 

OBJECT_NAME    = KNACKSAT-2
OBJECT_ID      = 1998-067XZ
CENTER_NAME    = EARTH
REF_FRAME      = TEME
TIME_SYSTEM    = UTC
MEAN_ELEMENT_THEORY = SGP/SGP4

EPOCH          = 2026-03-17T20:09:20.778912
MEAN_MOTION    = 15.52508996
ECCENTRICITY   = .000965
INCLINATION    = 51.6316
RA_OF_ASC_NODE = 31.3309
ARG_OF_PERICENTER = 214.5543
MEAN_ANOMALY   = 145.4820

EPHEMERIS_TYPE = 0
CLASSIFICATION_TYPE = U
NORAD_CAT_ID   = 67683
ELEMENT_SET_NO = 999
REV_AT_EPOCH   = 605
BSTAR          = .47514E-3
MEAN_MOTION_DOT = .29346E-3
MEAN_MOTION_DDOT = 0

